{"type": "FeatureCollection", "features": [{"type": "Feature", "properties": {"norad_id": 24946, "name": "IRIDIUM 33", "group": "iridium-33-debris", "lat": 11.398799157140676, "lon": 71.80338088821652, "alt_km": 780.0948570488354, "timestamp": "2025-12-05T22:40:48.934374+00:00", "meta": {"OBJECT_NAME": "IRIDIUM 33", "OBJECT_ID": "1997-051C", "EPOCH": "2025-12-05T07:33:56.328192", "MEAN_MOTION": 14.35029059, "ECCENTRICITY": 0.00062831, "INCLINATION": 86.3872, "RA_OF_ASC_NODE": 71.3378, "ARG_OF_PERICENTER": 228.7454, "MEAN_ANOMALY": 131.3201, "EPHEMERIS_TYPE": 0, "CLASSIFICATION_TYPE": "U", "NORAD_CAT_ID": 24946, "ELEMENT_SET_NO": 999, "REV_AT_EPOCH": 47728, "BSTAR": 0.00023540452, "MEAN_MOTION_DOT": 6.9e-06, "MEAN_MOTION_DDOT": 0}, "tle": {"line1": "1 24946U 97051C   25339.31523528  .00000690  00000+0  23540-3 0  9999", "line2": "2 24946  86.3872  71.3378 0006283 228.7454 131.3201 14.35029059477288"}}, "geometry": {"type": "Point", "coordinates": [71.80338088821652, 11.398799157140676]}}, {"type": "Feature", "properties": {"norad_id": 33773, "name": "IRIDIUM 33 DEB", "group": "iridium-33-debris", "lat": 51.9564401014601, "lon": -121.14444879983569, "alt_km": 736.6293368283787, "timestamp": "2025-12-05T22:40:48.934416+00:00", "meta": {"OBJECT_NAME": "IRIDIUM 33 DEB", "OBJECT_ID": "1997-051L", "EPOCH": "2025-12-05T07:06:49.449888", "MEAN_MOTION": 14.43231542, "ECCENTRICITY": 0.00116999, "INCLINATION": 86.4014, "RA_OF_ASC_NODE": 63.7431, "ARG_OF_PERICENTER": 169.222, "MEAN_ANOMALY": 190.9234, "EPHEMERIS_TYPE": 0, "CLASSIFICATION_TYPE": "U", "NORAD_CAT_ID": 33773, "ELEMENT_SET_NO": 999, "REV_AT_EPOCH": 88240, "BSTAR": 0.00063479208, "MEAN_MOTION_DOT": 2.156e-05, "MEAN_MOTION_DDOT": 0}, "tle": {"line1": "1 33773U 97051L   25339.29640567  .00002156  00000+0  63479-3 0  9991", "line2": "2 33773  86.4014  63.7431 0011699 169.2220 190.9234 14.43231542882409"}}, "geometry": {"type": "Point", "coordinates": [-121.14444879983569, 51.9564401014601]}}, {"type": "Feature", "properties": {"norad_id": 33775, "name": "IRIDIUM 33 DEB", "group": "iridium-33-debris", "lat": -74.84686086022258, "lon": -113.96712311954225, "alt_km": 759.3440275131243, "timestamp": "2025-12-05T22:40:48.934432+00:00", "meta": {"OBJECT_NAME": "IRIDIUM 33 DEB", "OBJECT_ID": "1997-051N", "EPOCH": "2025-12-05T06:48:23.493600", "MEAN_MOTION": 14.41443085, "ECCENTRICITY": 0.00134409, "INCLINATION": 86.3642, "RA_OF_ASC_NODE": 52.7362, "ARG_OF_PERICENTER": 178.1414, "MEAN_ANOMALY": 246.9711, "EPHEMERIS_TYPE": 0, "CLASSIFICATION_TYPE": "U", "NORAD_CAT_ID": 33775, "ELEMENT_SET_NO": 999, "REV_AT_EPOCH": 88033, "BSTAR": 0.00063298297, "MEAN_MOTION_DOT": 2.073e-05, "MEAN_MOTION_DDOT": 0}, "tle": {"line1": "1 33775U 97051N   25339.28360525  .00002073  00000+0  63298-3 0  9992", "line2": "2 33775  86.3642  52.7362 0013440 178.1414 246.9711 14.41443085880335"}}, "geometry": {"type": "Point", "coordinates": [-113.96712311954225, -74.84686086022258]}}, {"type": "Feature", "properties": {"norad_id": 33776, "name": "IRIDIUM 33 DEB", "group": "iridium-33-debris", "lat": -23.768521482699523, "lon": -94.78384780984346, "alt_km": 760.4562505975555, "timestamp": "2025-12-05T22:40:48.934446+00:00", "meta": {"OBJECT_NAME": "IRIDIUM 33 DEB", "OBJECT_ID": "1997-051P", "EPOCH": "2025-12-05T06:58:29.642304", "MEAN_MOTION": 14.38212006, "ECCENTRICITY": 0.00135433, "INCLINATION": 86.4037, "RA_OF_ASC_NODE": 83.9038, "ARG_OF_PERICENTER": 216.0996, "MEAN_ANOMALY": 201.6336, "EPHEMERIS_TYPE": 0, "CLASSIFICATION_TYPE": "U", "NORAD_CAT_ID": 33776, "ELEMENT_SET_NO": 999, "REV_AT_EPOCH": 87975, "BSTAR": 0.0005583743, "MEAN_MOTION_DOT": 1.716e-05, "MEAN_MOTION_DDOT": 0}, "tle": {"line1": "1 33776U 97051P   25339.29062086  .00001716  00000+0  55837-3 0  9998", "line2": "2 33776  86.4037  83.9038 0013543 216.0996 201.6336 14.38212006879750"}}, "geometry": {"type": "Point", "coordinates": [-94.78384780984346, -23.768521482699523]}}, {"type": "Feature", "properties": {"norad_id": 33777, "name": "IRIDIUM 33 DEB", "group": "iridium-33-debris", "lat": -72.02090210274227, "lon": 26.908419846484826, "alt_km": 711.4313751416012, "timestamp": "2025-12-05T22:40:48.934459+00:00", "meta": {"OBJECT_NAME": "IRIDIUM 33 DEB", "OBJECT_ID": "1997-051Q", "EPOCH": "2025-12-05T04:51:45.805536", "MEAN_MOTION": 14.5552579, "ECCENTRICITY": 0.00050741, "INCLINATION": 86.3795, "RA_OF_ASC_NODE": 38.4821, "ARG_OF_PERICENTER": 284.4573, "MEAN_ANOMALY": 75.6072, "EPHEMERIS_TYPE": 0, "CLASSIFICATION_TYPE": "U", "NORAD_CAT_ID": 33777, "ELEMENT_SET_NO": 999, "REV_AT_EPOCH": 88424, "BSTAR": 0.0019128945, "MEAN_MOTION_DOT": 8.353e-05, "MEAN_MOTION_DDOT": 0}, "tle": {"line1": "1 33777U 97051Q   25339.20261349  .00008353  00000+0  19129-2 0  9990", "line2": "2 33777  86.3795  38.4821 0005074 284.4573  75.6072 14.55525790884248"}}, "geometry": {"type": "Point", "coordinates": [26.908419846484826, -72.02090210274227]}}, {"type": "Feature", "properties": {"norad_id": 33850, "name": "IRIDIUM 33 DEB", "group": "iridium-33-debris", "lat": -39.49893247644939, "lon": -143.87622485658358, "alt_km": 751.5573746016989, "timestamp": "2025-12-05T22:40:48.934472+00:00", "meta": {"OBJECT_NAME": "IRIDIUM 33 DEB", "OBJECT_ID": "1997-051T", "EPOCH": "2025-12-05T05:18:21.032064", "MEAN_MOTION": 14.42122064, "ECCENTRICITY": 0.00114707, "INCLINATION": 86.3425, "RA_OF_ASC_NODE": 33.4125, "ARG_OF_PERICENTER": 184.4729, "MEAN_ANOMALY": 238.9261, "EPHEMERIS_TYPE": 0, "CLASSIFICATION_TYPE": "U", "NORAD_CAT_ID": 33850, "ELEMENT_SET_NO": 999, "REV_AT_EPOCH": 88044, "BSTAR": 0.0007830147, "MEAN_MOTION_DOT": 2.595e-05, "MEAN_MOTION_DDOT": 0}, "tle": {"line1": "1 33850U 97051T   25339.22107676  .00002595  00000+0  78301-3 0  9996", "line2": "2 33850  86.3425  33.4125 0011470 184.4729 238.9261 14.42122064880446"}}, "geometry": {"type": "Point", "coordinates": [-143.87622485658358, -39.49893247644939]}}, {"type": "Feature", "properties": {"norad_id": 33853, "name": "IRIDIUM 33 DEB", "group": "iridium-33-debris", "lat": -33.69043934534947, "lon": 175.46533146889473, "alt_km": 792.3238755974035, "timestamp": "2025-12-05T22:40:48.934484+00:00", "meta": {"OBJECT_NAME": "IRIDIUM 33 DEB", "OBJECT_ID": "1997-051W", "EPOCH": "2025-12-05T07:58:52.631040", "MEAN_MOTION": 13.98988574, "ECCENTRICITY": 0.02067847, "INCLINATION": 86, "RA_OF_ASC_NODE": 353.06, "ARG_OF_PERICENTER": 258.7314, "MEAN_ANOMALY": 113.8665, "EPHEMERIS_TYPE": 0, "CLASSIFICATION_TYPE": "U", "NORAD_CAT_ID": 33853, "ELEMENT_SET_NO": 999, "REV_AT_EPOCH": 85242, "BSTAR": 0.0039922227, "MEAN_MOTION_DOT": 6.943e-05, "MEAN_MOTION_DDOT": 0}, "tle": {"line1": "1 33853U 97051W   25339.33255360  .00006943  00000+0  39922-2 0  9991", "line2": "2 33853  86.0000 353.0600 0206784 258.7314 113.8665 13.98988574852425"}}, "geometry": {"type": "Point", "coordinates": [175.46533146889473, -33.69043934534947]}}, {"type": "Feature", "properties": {"norad_id": 33860, "name": "IRIDIUM 33 DEB", "group": "iridium-33-debris", "lat": -78.05554721959179, "lon": -132.36404229647752, "alt_km": 680.4489082921391, "timestamp": "2025-12-05T22:40:48.934496+00:00", "meta": {"OBJECT_NAME": "IRIDIUM 33 DEB", "OBJECT_ID": "1997-051AD", "EPOCH": "2025-12-05T05:27:29.367072", "MEAN_MOTION": 14.67216778, "ECCENTRICITY": 0.00084094, "INCLINATION": 86.3847, "RA_OF_ASC_NODE": 30.5633, "ARG_OF_PERICENTER": 22.7413, "MEAN_ANOMALY": 48.0833, "EPHEMERIS_TYPE": 0, "CLASSIFICATION_TYPE": "U", "NORAD_CAT_ID": 33860, "ELEMENT_SET_NO": 999, "REV_AT_EPOCH": 88612, "BSTAR": 0.0024296492, "MEAN_MOTION_DOT": 0.0001372, "MEAN_MOTION_DDOT": 0}, "tle": {"line1": "1 33860U 97051AD  25339.22742323  .00013720  00000+0  24296-2 0  9996", "line2": "2 33860  86.3847  30.5633 0008409  22.7413  48.0833 14.67216778886128"}}, "geometry": {"type": "Point", "coordinates": [-132.36404229647752, -78.05554721959179]}}, {"type": "Feature", "properties": {"norad_id": 33862, "name": "IRIDIUM 33 DEB", "group": "iridium-33-debris", "lat": -63.03555544495695, "lon": -132.38499174181615, "alt_km": 703.8293499315869, "timestamp": "2025-12-05T22:40:48.934508+00:00", "meta": {"OBJECT_NAME": "IRIDIUM 33 DEB", "OBJECT_ID": "1997-051AF", "EPOCH": "2025-12-05T05:32:29.614848", "MEAN_MOTION": 14.69287802, "ECCENTRICITY": 0.00538455, "INCLINATION": 86.4101, "RA_OF_ASC_NODE": 40.8412, "ARG_OF_PERICENTER": 94.1733, "MEAN_ANOMALY": 333.9128, "EPHEMERIS_TYPE": 0, "CLASSIFICATION_TYPE": "U", "NORAD_CAT_ID": 33862, "ELEMENT_SET_NO": 999, "REV_AT_EPOCH": 88713, "BSTAR": 0.0027408775, "MEAN_MOTION_DOT": 0.00016577, "MEAN_MOTION_DDOT": 0}, "tle": {"line1": "1 33862U 97051AF  25339.23089832  .00016577  00000+0  27409-2 0  9990", "line2": "2 33862  86.4101  40.8412 0053845  94.1733 333.9128 14.69287802887138"}}, "geometry": {"type": "Point", "coordinates": [-132.38499174181615, -63.03555544495695]}}, {"type": "Feature", "properties": {"norad_id": 33866, "name": "IRIDIUM 33 DEB", "group": "iridium-33-debris", "lat": -52.74541012602163, "lon": 91.02958433554515, "alt_km": 860.041941896191, "timestamp": "2025-12-05T22:40:48.934519+00:00", "meta": {"OBJECT_NAME": "IRIDIUM 33 DEB", "OBJECT_ID": "1997-051AK", "EPOCH": "2025-12-05T08:01:21.651168", "MEAN_MOTION": 14.25233649, "ECCENTRICITY": 0.01138722, "INCLINATION": 86.3002, "RA_OF_ASC_NODE": 96.1684, "ARG_OF_PERICENTER": 184.9908, "MEAN_ANOMALY": 229.4849, "EPHEMERIS_TYPE": 0, "CLASSIFICATION_TYPE": "U", "NORAD_CAT_ID": 33866, "ELEMENT_SET_NO": 999, "REV_AT_EPOCH": 86705, "BSTAR": 0.0013838193, "MEAN_MOTION_DOT": 3.499e-05, "MEAN_MOTION_DDOT": 0}, "tle": {"line1": "1 33866U 97051AK  25339.33427837  .00003499  00000+0  13838-2 0  9996", "line2": "2 33866  86.3002  96.1684 0113872 184.9908 229.4849 14.25233649867055"}}, "geometry": {"type": "Point", "coordinates": [91.02958433554515, -52.74541012602163]}}]}